[{"OBJECT_NAME":"CUBEBUG-2 (LO-74)","OBJECT_ID":"2013-066AA","EPOCH":"2026-03-09T19:57:37.220256","MEAN_MOTION":14.92958446,"ECCENTRICITY":0.00587054,"INCLINATION":97.8812,"RA_OF_ASC_NODE":17.505,"ARG_OF_PERICENTER":358.4894,"MEAN_ANOMALY":1.6138,"EPHEMERIS_TYPE":0,"CLASSIFICATION_TYPE":"U","NORAD_CAT_ID":39440,"ELEMENT_SET_NO":999,"REV_AT_EPOCH":66216,"BSTAR":0.0005932098,"MEAN_MOTION_DOT":6.31e-5,"MEAN_MOTION_DDOT":0},{"OBJECT_NAME":"STARLINK-36106","OBJECT_ID":"2025-293R","EPOCH":"2026-03-09T12:10:20.378784","MEAN_MOTION":14.98345506,"ECCENTRICITY":0.00032636,"INCLINATION":70.0003,"RA_OF_ASC_NODE":94.7881,"ARG_OF_PERICENTER":267.91,"MEAN_ANOMALY":92.1685,"EPHEMERIS_TYPE":0,"CLASSIFICATION_TYPE":"U","NORAD_CAT_ID":67018,"ELEMENT_SET_NO":999,"REV_AT_EPOCH":1486,"BSTAR":0.00032957654,"MEAN_MOTION_DOT":3.843e-5,"MEAN_MOTION_DDOT":0}]
